CCSDS_OMM_VERS = 2.0
CREATION_DATE  = 
ORIGINATOR     = 

OBJECT_NAME    = SOYUZ-MS 28
OBJECT_ID      = 2025-275A
CENTER_NAME    = EARTH
REF_FRAME      = TEME
TIME_SYSTEM    = UTC
MEAN_ELEMENT_THEORY = SGP/SGP4

EPOCH          = 2026-01-07T20:31:08.770368
MEAN_MOTION    = 15.49160932
ECCENTRICITY   = .0007624
INCLINATION    = 51.6332
RA_OF_ASC_NODE = 13.1773
ARG_OF_PERICENTER = 352.7234
MEAN_ANOMALY   = 7.3643

EPHEMERIS_TYPE = 0
CLASSIFICATION_TYPE = U
NORAD_CAT_ID   = 66664
ELEMENT_SET_NO = 999
REV_AT_EPOCH   = 54690
BSTAR          = .15591E-3
MEAN_MOTION_DOT = .8201E-4
MEAN_MOTION_DDOT = 0

CCSDS_OMM_VERS = 2.0
CREATION_DATE  = 
ORIGINATOR     = 

OBJECT_NAME    = 1998-067XS
OBJECT_ID      = 1998-067XS
CENTER_NAME    = EARTH
REF_FRAME      = TEME
TIME_SYSTEM    = UTC
MEAN_ELEMENT_THEORY = SGP/SGP4

EPOCH          = 2026-01-08T00:17:20.170464
MEAN_MOTION    = 15.52134367
ECCENTRICITY   = .0002305
INCLINATION    = 51.6331
RA_OF_ASC_NODE = 11.9786
ARG_OF_PERICENTER = 340.2179
MEAN_ANOMALY   = 19.8721

EPHEMERIS_TYPE = 0
CLASSIFICATION_TYPE = U
NORAD_CAT_ID   = 66906
ELEMENT_SET_NO = 999
REV_AT_EPOCH   = 569
BSTAR          = .40016E-3
MEAN_MOTION_DOT = .24252E-3
MEAN_MOTION_DDOT = 0

CCSDS_OMM_VERS = 2.0
CREATION_DATE  = 
ORIGINATOR     = 

OBJECT_NAME    = 1998-067XT
OBJECT_ID      = 1998-067XT
CENTER_NAME    = EARTH
REF_FRAME      = TEME
TIME_SYSTEM    = UTC
MEAN_ELEMENT_THEORY = SGP/SGP4

EPOCH          = 2026-01-08T04:04:05.386656
MEAN_MOTION    = 15.55423073
ECCENTRICITY   = .0003823
INCLINATION    = 51.6316
RA_OF_ASC_NODE = 10.7801
ARG_OF_PERICENTER = 28.0543
MEAN_ANOMALY   = 332.0654

EPHEMERIS_TYPE = 0
CLASSIFICATION_TYPE = U
NORAD_CAT_ID   = 66907
ELEMENT_SET_NO = 999
REV_AT_EPOCH   = 572
BSTAR          = .97354E-3
MEAN_MOTION_DOT = .67682E-3
MEAN_MOTION_DDOT = 0

CCSDS_OMM_VERS = 2.0
CREATION_DATE  = 
ORIGINATOR     = 

OBJECT_NAME    = 1998-067XU
OBJECT_ID      = 1998-067XU
CENTER_NAME    = EARTH
REF_FRAME      = TEME
TIME_SYSTEM    = UTC
MEAN_ELEMENT_THEORY = SGP/SGP4

EPOCH          = 2026-01-08T00:57:33.350976
MEAN_MOTION    = 15.55392024
ECCENTRICITY   = .0003811
INCLINATION    = 51.6305
RA_OF_ASC_NODE = 11.4139
ARG_OF_PERICENTER = 22.5574
MEAN_ANOMALY   = 337.5584

EPHEMERIS_TYPE = 0
CLASSIFICATION_TYPE = U
NORAD_CAT_ID   = 66908
ELEMENT_SET_NO = 999
REV_AT_EPOCH   = 570
BSTAR          = .9635E-3
MEAN_MOTION_DOT = .66895E-3
MEAN_MOTION_DDOT = 0

CCSDS_OMM_VERS = 2.0
CREATION_DATE  = 
ORIGINATOR     = 

OBJECT_NAME    = SILVERSAT
OBJECT_ID      = 1998-067XV
CENTER_NAME    = EARTH
REF_FRAME      = TEME
TIME_SYSTEM    = UTC
MEAN_ELEMENT_THEORY = SGP/SGP4

EPOCH          = 2026-01-08T03:54:24.789888
MEAN_MOTION    = 15.55994225
ECCENTRICITY   = .0003964
INCLINATION    = 51.6308
RA_OF_ASC_NODE = 10.7344
ARG_OF_PERICENTER = 31.9930
MEAN_ANOMALY   = 328.1301

EPHEMERIS_TYPE = 0
CLASSIFICATION_TYPE = U
NORAD_CAT_ID   = 66909
ELEMENT_SET_NO = 999
REV_AT_EPOCH   = 572
BSTAR          = .10774E-2
MEAN_MOTION_DOT = .76645E-3
MEAN_MOTION_DDOT = 0

CCSDS_OMM_VERS = 2.0
CREATION_DATE  = 
ORIGINATOR     = 

OBJECT_NAME    = 1998-067XW
OBJECT_ID      = 1998-067XW
CENTER_NAME    = EARTH
REF_FRAME      = TEME
TIME_SYSTEM    = UTC
MEAN_ELEMENT_THEORY = SGP/SGP4

EPOCH          = 2026-01-08T03:54:30.870720
MEAN_MOTION    = 15.55705014
ECCENTRICITY   = .0002921
INCLINATION    = 51.6298
RA_OF_ASC_NODE = 10.7335
ARG_OF_PERICENTER = 5.9633
MEAN_ANOMALY   = 354.1393

EPHEMERIS_TYPE = 0
CLASSIFICATION_TYPE = U
NORAD_CAT_ID   = 66910
ELEMENT_SET_NO = 999
REV_AT_EPOCH   = 572
BSTAR          = .10212E-2
MEAN_MOTION_DOT = .71796E-3
MEAN_MOTION_DDOT = 0

CCSDS_OMM_VERS = 2.0
CREATION_DATE  = 
ORIGINATOR     = 

OBJECT_NAME    = 1998-067XX
OBJECT_ID      = 1998-067XX
CENTER_NAME    = EARTH
REF_FRAME      = TEME
TIME_SYSTEM    = UTC
MEAN_ELEMENT_THEORY = SGP/SGP4

EPOCH          = 2026-01-08T00:34:14.916000
MEAN_MOTION    = 15.56642016
ECCENTRICITY   = .0002965
INCLINATION    = 51.6305
RA_OF_ASC_NODE = 11.3054
ARG_OF_PERICENTER = 20.3828
MEAN_ANOMALY   = 339.7281

EPHEMERIS_TYPE = 0
CLASSIFICATION_TYPE = U
NORAD_CAT_ID   = 66911
ELEMENT_SET_NO = 999
REV_AT_EPOCH   = 569
BSTAR          = .11011E-2
MEAN_MOTION_DOT = .80285E-3
MEAN_MOTION_DDOT = 0

CCSDS_OMM_VERS = 2.0
CREATION_DATE  = 
ORIGINATOR     = 

OBJECT_NAME    = 1998-067XY
OBJECT_ID      = 1998-067XY
CENTER_NAME    = EARTH
REF_FRAME      = TEME
TIME_SYSTEM    = UTC
MEAN_ELEMENT_THEORY = SGP/SGP4

EPOCH          = 2026-01-08T04:22:49.725408
MEAN_MOTION    = 15.54220315
ECCENTRICITY   = .0003679
INCLINATION    = 51.6315
RA_OF_ASC_NODE = 10.8658
ARG_OF_PERICENTER = 12.1707
MEAN_ANOMALY   = 347.9372

EPHEMERIS_TYPE = 0
CLASSIFICATION_TYPE = U
NORAD_CAT_ID   = 66912
ELEMENT_SET_NO = 999
REV_AT_EPOCH   = 571
BSTAR          = .74286E-3
MEAN_MOTION_DOT = .49175E-3
MEAN_MOTION_DDOT = 0

