SOYUZ-MS 28             
1 66664U 25275A   26007.85496262  .00008201  00000+0  15591-3 0  9990
2 66664  51.6332  13.1773 0007624 352.7234   7.3643 15.49160932546904
1998-067XS              
1 66906U 98067XS  26008.01203901  .00024252  00000+0  40016-3 0  9997
2 66906  51.6331  11.9786 0002305 340.2179  19.8721 15.52134367  5691
1998-067XT              
1 66907U 98067XT  26008.16950679  .00067682  00000+0  97354-3 0  9996
2 66907  51.6316  10.7801 0003823  28.0543 332.0654 15.55423073  5729
1998-067XU              
1 66908U 98067XU  26008.03996934  .00066895  00000+0  96350-3 0  9997
2 66908  51.6305  11.4139 0003811  22.5574 337.5584 15.55392024  5701
SILVERSAT               
1 66909U 98067XV  26008.16278692  .00076645  00000+0  10774-2 0  9995
2 66909  51.6308  10.7344 0003964  31.9930 328.1301 15.55994225  5720
1998-067XW              
1 66910U 98067XW  26008.16285730  .00071796  00000+0  10212-2 0  9997
2 66910  51.6298  10.7335 0002921   5.9633 354.1393 15.55705014  5729
1998-067XX              
1 66911U 98067XX  26008.02378375  .00080285  00000+0  11011-2 0  9992
2 66911  51.6305  11.3054 0002965  20.3828 339.7281 15.56642016  5693
1998-067XY              
1 66912U 98067XY  26008.18251997  .00049175  00000+0  74286-3 0  9997
2 66912  51.6315  10.8658 0003679  12.1707 347.9372 15.54220315  5714
